start=new Date('2022-11-27T00:00:00.000Z').valueOf();
sats=[{"NORAD_CAT_ID":"52334","SITE":"AFETR","CLASSIFICATION_TYPE":"U","GP_ID":"218893957","COUNTRY_CODE":"US","FILE":"3671048","LAUNCH_DATE":"2022-04-29","MEAN_ELEMENT_THEORY":"SGP4","APOAPSIS":"541.736","PERIOD":"95.437","MEAN_ANOMALY":"323.7065","OBJECT_NAME":"STARLINK-3880","REV_AT_EPOCH":"3465","MEAN_MOTION_DOT":"0.00001354","ARG_OF_PERICENTER":"36.4126","MEAN_MOTION_DDOT":"0.0000000000000","PERIAPSIS":"537.683","REF_FRAME":"TEME","TLE_LINE2":"2 52334  53.2171 190.7206 0002929  36.4126 323.7065 15.08851694 34658","ELEMENT_SET_NO":"999","ECCENTRICITY":"0.00029290","EPOCH":"2022-11-26T21:32:02.190912","TLE_LINE1":"1 52334U 22045D   22330.89724758  .00001354  00000-0  10314-3 0  9995","RA_OF_ASC_NODE":"190.7206","RCS_SIZE":"LARGE","BSTAR":"0.00010314000000","EPHEMERIS_TYPE":"0","INCLINATION":"53.2171","OBJECT_ID":"2022-045D","CENTER_NAME":"EARTH","OBJECT_TYPE":"PAYLOAD","SEMIMAJOR_AXIS":"6917.845","MEAN_MOTION":"15.08851694","TIME_SYSTEM":"UTC","DECAY_DATE":null},{"RA_OF_ASC_NODE":"190.7395","RCS_SIZE":"LARGE","BSTAR":"0.00006364500000","EPHEMERIS_TYPE":"0","INCLINATION":"53.2161","OBJECT_ID":"2022-045E","CENTER_NAME":"EARTH","OBJECT_TYPE":"PAYLOAD","SEMIMAJOR_AXIS":"6917.846","MEAN_MOTION":"15.08851122","TIME_SYSTEM":"UTC","DECAY_DATE":null,"NORAD_CAT_ID":"52335","SITE":"AFETR","CLASSIFICATION_TYPE":"U","GP_ID":"218894209","COUNTRY_CODE":"US","LAUNCH_DATE":"2022-04-29","FILE":"3671048","MEAN_ELEMENT_THEORY":"SGP4","APOAPSIS":"542.019","PERIOD":"95.437","MEAN_ANOMALY":"323.0104","OBJECT_NAME":"STARLINK-3814","REV_AT_EPOCH":"3466","MEAN_MOTION_DOT":"0.00000725","ARG_OF_PERICENTER":"37.1119","REF_FRAME":"TEME","PERIAPSIS":"537.404","MEAN_MOTION_DDOT":"0.0000000000000","TLE_LINE2":"2 52335  53.2161 190.7395 0003336  37.1119 323.0104 15.08851122 34664","ELEMENT_SET_NO":"999","ECCENTRICITY":"0.00033360","EPOCH":"2022-11-26T21:26:44.360736","TLE_LINE1":"1 52335U 22045E   22330.89356899  .00000725  00000-0  63645-4 0  9990"},{"OBJECT_TYPE":"PAYLOAD","SEMIMAJOR_AXIS":"6917.839","MEAN_MOTION":"15.08853419","TIME_SYSTEM":"UTC","DECAY_DATE":null,"INCLINATION":"53.2169","OBJECT_ID":"2022-045F","CENTER_NAME":"EARTH","RA_OF_ASC_NODE":"190.7705","RCS_SIZE":"LARGE","BSTAR":"0.00006803000000","EPHEMERIS_TYPE":"0","EPOCH":"2022-11-26T21:17:31.174368","TLE_LINE1":"1 52336U 22045F   22330.88716637  .00000795  00000-0  68030-4 0  9990","OBJECT_NAME":"STARLINK-3823","REV_AT_EPOCH":"3466","MEAN_MOTION_DOT":"0.00000795","ARG_OF_PERICENTER":"39.0713","PERIAPSIS":"537.653","MEAN_MOTION_DDOT":"0.0000000000000","REF_FRAME":"TEME","TLE_LINE2":"2 52336  53.2169 190.7705 0002966  39.0713 321.0493 15.08853419 34667","ELEMENT_SET_NO":"999","ECCENTRICITY":"0.00029660","CLASSIFICATION_TYPE":"U","COUNTRY_CODE":"US","GP_ID":"218894958","FILE":"3671048","LAUNCH_DATE":"2022-04-29","MEAN_ELEMENT_THEORY":"SGP4","APOAPSIS":"541.756","PERIOD":"95.437","MEAN_ANOMALY":"321.0493","NORAD_CAT_ID":"52336","SITE":"AFETR"},{"EPOCH":"2022-11-26T16:56:31.652160","TLE_LINE1":"1 52337U 22045G   22330.70592190  .00006036  00000-0  39697-3 0  9998","REV_AT_EPOCH":"3463","OBJECT_NAME":"STARLINK-3797","ARG_OF_PERICENTER":"38.5361","MEAN_MOTION_DOT":"0.00006036","MEAN_MOTION_DDOT":"0.0000000000000","PERIAPSIS":"537.354","REF_FRAME":"TEME","ECCENTRICITY":"0.00034260","ELEMENT_SET_NO":"999","TLE_LINE2":"2 52337  53.2147 191.5625 0003426  38.5361 321.5875 15.08847071 34632","GP_ID":"218893707","COUNTRY_CODE":"US","CLASSIFICATION_TYPE":"U","FILE":"3671048","LAUNCH_DATE":"2022-04-29","APOAPSIS":"542.094","PERIOD":"95.437","MEAN_ELEMENT_THEORY":"SGP4","MEAN_ANOMALY":"321.5875","SITE":"AFETR","NORAD_CAT_ID":"52337","OBJECT_TYPE":"PAYLOAD","SEMIMAJOR_AXIS":"6917.859","TIME_SYSTEM":"UTC","MEAN_MOTION":"15.08847071","DECAY_DATE":null,"INCLINATION":"53.2147","OBJECT_ID":"2022-045G","CENTER_NAME":"EARTH","RCS_SIZE":"LARGE","RA_OF_ASC_NODE":"191.5625","EPHEMERIS_TYPE":"0","BSTAR":"0.00039697000000"},{"BSTAR":"0.00009891400000","EPHEMERIS_TYPE":"0","RA_OF_ASC_NODE":"190.8200","RCS_SIZE":"LARGE","OBJECT_ID":"2022-045H","CENTER_NAME":"EARTH","INCLINATION":"53.2153","MEAN_MOTION":"15.08847209","TIME_SYSTEM":"UTC","DECAY_DATE":null,"OBJECT_TYPE":"PAYLOAD","SEMIMAJOR_AXIS":"6917.858","NORAD_CAT_ID":"52338","SITE":"AFETR","MEAN_ELEMENT_THEORY":"SGP4","APOAPSIS":"541.079","PERIOD":"95.437","MEAN_ANOMALY":"312.3293","CLASSIFICATION_TYPE":"U","COUNTRY_CODE":"US","GP_ID":"218893459","LAUNCH_DATE":"2022-04-29","FILE":"3671048","PERIAPSIS":"538.367","MEAN_MOTION_DDOT":"0.0000000000000","REF_FRAME":"TEME","TLE_LINE2":"2 52338  53.2153 190.8200 0001960  47.7865 312.3293 15.08847209 34661","ECCENTRICITY":"0.00019600","ELEMENT_SET_NO":"999","OBJECT_NAME":"STARLINK-3815","REV_AT_EPOCH":"3466","MEAN_MOTION_DOT":"0.00001287","ARG_OF_PERICENTER":"47.7865","TLE_LINE1":"1 52338U 22045H   22330.87613471  .00001287  00000-0  98914-4 0  9994","EPOCH":"2022-11-26T21:01:38.038944"},{"MEAN_ANOMALY":"322.4322","APOAPSIS":"541.793","PERIOD":"95.437","MEAN_ELEMENT_THEORY":"SGP4","FILE":"3671048","LAUNCH_DATE":"2022-04-29","CLASSIFICATION_TYPE":"U","GP_ID":"218894709","COUNTRY_CODE":"US","NORAD_CAT_ID":"52339","SITE":"AFETR","TLE_LINE1":"1 52339U 22045J   22330.87980357  .00001756  00000-0  12836-3 0  9994","EPOCH":"2022-11-26T21:06:55.028448","TLE_LINE2":"2 52339  53.2158 190.8006 0003016  37.6881 322.4322 15.08852638 34668","ELEMENT_SET_NO":"999","ECCENTRICITY":"0.00030160","REF_FRAME":"TEME","PERIAPSIS":"537.620","MEAN_MOTION_DDOT":"0.0000000000000","MEAN_MOTION_DOT":"0.00001756","ARG_OF_PERICENTER":"37.6881","OBJECT_NAME":"STARLINK-3792","REV_AT_EPOCH":"3466","CENTER_NAME":"EARTH","OBJECT_ID":"2022-045J","INCLINATION":"53.2158","BSTAR":"0.00012836000000","EPHEMERIS_TYPE":"0","RA_OF_ASC_NODE":"190.8006","RCS_SIZE":"LARGE","DECAY_DATE":null,"MEAN_MOTION":"15.08852638","TIME_SYSTEM":"UTC","SEMIMAJOR_AXIS":"6917.842","OBJECT_TYPE":"PAYLOAD"},{"MEAN_MOTION_DOT":"-0.00000091","ARG_OF_PERICENTER":"47.1972","OBJECT_NAME":"STARLINK-3818","REV_AT_EPOCH":"3474","TLE_LINE2":"2 52340  53.2165 182.1358 0002797  47.1972 312.9255 15.08833946 34743","ECCENTRICITY":"0.00027970","ELEMENT_SET_NO":"999","PERIAPSIS":"537.829","MEAN_MOTION_DDOT":"0.0000000000000","REF_FRAME":"TEME","EPOCH":"2022-11-26T13:52:20.900352","TLE_LINE1":"1 52340U 22045K   22330.57801968 -.00000091  00000-0  12441-4 0  9998","NORAD_CAT_ID":"52340","SITE":"AFETR","LAUNCH_DATE":"2022-04-29","FILE":"3671002","CLASSIFICATION_TYPE":"U","COUNTRY_CODE":"US","GP_ID":"218869591","MEAN_ANOMALY":"312.9255","MEAN_ELEMENT_THEORY":"SGP4","APOAPSIS":"541.699","PERIOD":"95.438","SEMIMAJOR_AXIS":"6917.899","OBJECT_TYPE":"PAYLOAD","DECAY_DATE":null,"MEAN_MOTION":"15.08833946","TIME_SYSTEM":"UTC","RA_OF_ASC_NODE":"182.1358","RCS_SIZE":"LARGE","BSTAR":"0.00001244100000","EPHEMERIS_TYPE":"0","INCLINATION":"53.2165","CENTER_NAME":"EARTH","OBJECT_ID":"2022-045K"},{"EPOCH":"2022-11-26T21:12:14.017248","TLE_LINE1":"1 52341U 22045L   22330.88349557  .00002022  00000-0  14513-3 0  9990","OBJECT_NAME":"STARLINK-3843","REV_AT_EPOCH":"3466","MEAN_MOTION_DOT":"0.00002022","ARG_OF_PERICENTER":"34.9630","PERIAPSIS":"537.324","MEAN_MOTION_DDOT":"0.0000000000000","REF_FRAME":"TEME","TLE_LINE2":"2 52341  53.2159 190.7791 0003464  34.9630 325.1589 15.08848118 34664","ECCENTRICITY":"0.00034640","ELEMENT_SET_NO":"999","CLASSIFICATION_TYPE":"U","COUNTRY_CODE":"US","GP_ID":"218893209","LAUNCH_DATE":"2022-04-29","FILE":"3671048","APOAPSIS":"542.117","PERIOD":"95.437","MEAN_ELEMENT_THEORY":"SGP4","MEAN_ANOMALY":"325.1589","NORAD_CAT_ID":"52341","SITE":"AFETR","OBJECT_TYPE":"PAYLOAD","SEMIMAJOR_AXIS":"6917.856","MEAN_MOTION":"15.08848118","TIME_SYSTEM":"UTC","DECAY_DATE":null,"INCLINATION":"53.2159","OBJECT_ID":"2022-045L","CENTER_NAME":"EARTH","RA_OF_ASC_NODE":"190.7791","RCS_SIZE":"LARGE","BSTAR":"0.00014513000000","EPHEMERIS_TYPE":"0"},{"REF_FRAME":"TEME","PERIAPSIS":"537.665","MEAN_MOTION_DDOT":"0.0000000000000","ECCENTRICITY":"0.00030100","ELEMENT_SET_NO":"999","TLE_LINE2":"2 52342  53.2165 181.5767 0003010  36.6237 323.4961 15.08839531 34778","REV_AT_EPOCH":"3477","OBJECT_NAME":"STARLINK-3850","ARG_OF_PERICENTER":"36.6237","MEAN_MOTION_DOT":"0.00000683","TLE_LINE1":"1 52342U 22045M   22330.70314248  .00000683  00000-0  61037-4 0  9996","EPOCH":"2022-11-26T16:52:31.510272","SITE":"AFETR","NORAD_CAT_ID":"52342","PERIOD":"95.438","APOAPSIS":"541.829","MEAN_ELEMENT_THEORY":"SGP4","MEAN_ANOMALY":"323.4961","COUNTRY_CODE":"US","GP_ID":"218893958","CLASSIFICATION_TYPE":"U","LAUNCH_DATE":"2022-04-29","FILE":"3671048","TIME_SYSTEM":"UTC","MEAN_MOTION":"15.08839531","DECAY_DATE":null,"OBJECT_TYPE":"PAYLOAD","SEMIMAJOR_AXIS":"6917.882","EPHEMERIS_TYPE":"0","BSTAR":"0.00006103700000","RCS_SIZE":"LARGE","RA_OF_ASC_NODE":"181.5767","OBJECT_ID":"2022-045M","CENTER_NAME":"EARTH","INCLINATION":"53.2165"},{"OBJECT_NAME":"STARLINK-3849","REV_AT_EPOCH":"3464","MEAN_MOTION_DOT":"0.00000814","ARG_OF_PERICENTER":"33.3955","PERIAPSIS":"537.549","MEAN_MOTION_DDOT":"0.0000000000000","REF_FRAME":"TEME","TLE_LINE2":"2 52343  53.2186 191.5285 0003130  33.3955 326.7235 15.08850103 34646","ECCENTRICITY":"0.00031300","ELEMENT_SET_NO":"999","EPOCH":"2022-11-26T17:12:22.988736","TLE_LINE1":"1 52343U 22045N   22330.71693274  .00000814  00000-0  69282-4 0  9993","NORAD_CAT_ID":"52343","SITE":"AFETR","CLASSIFICATION_TYPE":"U","COUNTRY_CODE":"US","GP_ID":"218894210","FILE":"3671048","LAUNCH_DATE":"2022-04-29","MEAN_ELEMENT_THEORY":"SGP4","APOAPSIS":"541.880","PERIOD":"95.437","MEAN_ANOMALY":"326.7235","OBJECT_TYPE":"PAYLOAD","SEMIMAJOR_AXIS":"6917.850","MEAN_MOTION":"15.08850103","TIME_SYSTEM":"UTC","DECAY_DATE":null,"RA_OF_ASC_NODE":"191.5285","RCS_SIZE":"LARGE","BSTAR":"0.00006928200000","EPHEMERIS_TYPE":"0","INCLINATION":"53.2186","OBJECT_ID":"2022-045N","CENTER_NAME":"EARTH"}];
